NORAD_CAT_ID,OBJECT_NAME,OBJECT_TYPE,EPOCH,MEAN_MOTION,ECCENTRICITY,INCLINATION,RA_OF_ASC_NODE,ARG_OF_PERICENTER,MEAN_ANOMALY,BSTAR,MEAN_MOTION_DOT,MEAN_MOTION_DDOT,TLE_LINE0,TLE_LINE1,TLE_LINE2,SEMIMAJOR_AXIS,PERIOD,APOGEE,PERIGEE,DECAYED
52578.0,STARLINK-3833,PAYLOAD,2023-02-15 03:17:56,15.08833408,0.0001303,53.2145,115.5043,94.4282,265.6859,6.6693e-05,7.74e-06,0.0,0 STARLINK-3833,1 52578U 22051AU  23046.13745967  .00000774  00000-0  66693-4 0  9996,2 52578  53.2145 115.5043 0001303  94.4282 265.6859 15.08833408 42584,6917.901,95.438,540.667,538.864,0.0
52578.0,STARLINK-3833,PAYLOAD,2023-02-15 11:14:51,15.08846731,0.0001213,53.2151,114.0175,75.6984,284.4142,7.9742e-05,9.82e-06,0.0,0 STARLINK-3833,1 52578U 22051AU  23046.46865264  .00000982  00000-0  79742-4 0  9995,2 52578  53.2151 114.0175 0001213  75.6984 284.4142 15.08846731 42634,6917.86,95.437,540.564,538.886,0.0
52578.0,STARLINK-3833,PAYLOAD,2023-02-16 09:30:13,15.08870641,0.0001221,53.2162,109.8562,108.9432,251.1693,0.00025919,3.843e-05,0.0,0 STARLINK-3833,1 52578U 22051AU  23047.39598789  .00003843  00000-0  25919-3 0  9998,2 52578  53.2162 109.8562 0001221 108.9432 251.1693 15.08870641 42779,6917.787,95.436,540.496,538.807,0.0
52578.0,STARLINK-3833,PAYLOAD,2023-02-16 14:16:22,15.08871448,0.0001031,53.2158,108.9618,86.348,273.763,0.00025092,3.711e-05,0.0,0 STARLINK-3833,1 52578U 22051AU  23047.59470434  .00003711  00000-0  25092-3 0  9992,2 52578  53.2158 108.9618 0001031  86.3480 273.7630 15.08871448 42730,6917.784,95.436,540.362,538.936,0.0
52578.0,STARLINK-3833,PAYLOAD,2023-02-17 04:34:54,15.08814988,0.0001245,53.216,106.2846,125.9116,234.1991,-0.00013554,-2.443e-05,0.0,0 STARLINK-3833,1 52578U 22051AU  23048.19091098 -.00002443  00000-0 -13554-3 0  9997,2 52578  53.2160 106.2846 0001245 125.9116 234.1991 15.08814988 42894,6917.957,95.439,540.683,538.961,0.0
52578.0,STARLINK-3833,PAYLOAD,2023-02-17 10:56:27,15.08813508,7.39e-05,53.2158,105.0974,98.461,261.6465,-0.00011747,-2.155e-05,0.0,0 STARLINK-3833,1 52578U 22051AU  23048.45587546 -.00002155  00000-0 -11747-3 0  9996,2 52578  53.2158 105.0974 0000739  98.4610 261.6465 15.08813508 42865,6917.961,95.439,540.338,539.315,0.0
52578.0,STARLINK-3833,PAYLOAD,2023-02-17 20:28:46,15.08823022,8.45e-05,53.2165,103.3125,96.8446,263.2642,-0.000158,-2.8e-05,0.0,0 STARLINK-3833,1 52578U 22051AU  23048.85331454 -.00002800  00000-0 -15800-3 0  9996,2 52578  53.2165 103.3125 0000845  96.8446 263.2642 15.08823022 42990,6917.932,95.439,540.382,539.213,0.0
52578.0,STARLINK-3833,PAYLOAD,2023-02-18 07:36:27,15.08832045,7.41e-05,53.2147,101.2291,112.0078,248.0993,-0.00011091,-2.052e-05,0.0,0 STARLINK-3833,1 52578U 22051AU  23049.31699071 -.00002052  00000-0 -11091-3 0  9997,2 52578  53.2147 101.2291 0000741 112.0078 248.0993 15.08832045 43062,6917.905,95.438,540.282,539.257,0.0
52578.0,STARLINK-3833,PAYLOAD,2023-02-18 13:57:59,15.08854279,9.46e-05,53.2161,100.0405,85.6603,274.4498,-9.6769e-05,-1.828e-05,0.0,0 STARLINK-3833,1 52578U 22051AU  23049.58193634 -.00001828  00000-0 -96769-4 0  9996,2 52578  53.2161 100.0405 0000946  85.6603 274.4498 15.08854279 43031,6917.837,95.437,540.356,539.047,0.0
52578.0,STARLINK-3833,PAYLOAD,2023-02-19 12:13:24,15.08827567,6.06e-05,53.2163,95.8753,67.3784,292.7272,0.00016945,2.409e-05,0.0,0 STARLINK-3833,1 52578U 22051AU  23050.50931372  .00002409  00000-0  16945-3 0  9990,2 52578  53.2163  95.8753 0000606  67.3784 292.7272 15.08827567 43246,6917.918,95.438,540.203,539.364,0.0
52578.0,STARLINK-3833,PAYLOAD,2023-02-20 08:53:24,15.08849423,5.45e-05,53.2161,92.0092,82.3887,277.7167,0.00021118,3.076e-05,0.0,0 STARLINK-3833,1 52578U 22051AU  23051.37042049  .00003076  00000-0  21118-3 0  9999,2 52578  53.2161  92.0092 0000545  82.3887 277.7167 15.08849423 43377,6917.852,95.437,540.094,539.34,0.0
52578.0,STARLINK-3833,PAYLOAD,2023-02-21 05:33:25,15.0884729,9.63e-05,53.2169,88.1448,96.8233,263.2868,3.2794e-05,2.34e-06,0.0,0 STARLINK-3833,1 52578U 22051AU  23052.23154414  .00000234  00000-0  32794-4 0  9991,2 52578  53.2169  88.1448 0000963  96.8233 263.2868 15.08847290 43508,6917.858,95.437,540.389,539.057,0.0
52578.0,STARLINK-3833,PAYLOAD,2023-02-21 08:44:11,15.08846503,6.89e-05,53.2158,87.5501,98.9385,261.1685,1.6609e-05,-2.3e-07,0.0,0 STARLINK-3833,1 52578U 22051AU  23052.36402355 -.00000023  00000-0  16609-4 0  9999,2 52578  53.2158  87.5501 0000689  98.9385 261.1685 15.08846503 43459,6917.861,95.437,540.202,539.249,0.0
52578.0,STARLINK-3833,PAYLOAD,2023-02-21 19:51:53,15.08841752,7.33e-05,53.2157,85.4678,102.6903,257.4171,-1.8769e-05,-5.86e-06,0.0,0 STARLINK-3833,1 52578U 22051AU  23052.82770599 -.00000586  00000-0 -18769-4 0  9992,2 52578  53.2157  85.4678 0000733 102.6903 257.4171 15.08841752 43526,6917.875,95.437,540.247,539.233,0.0
52578.0,STARLINK-3833,PAYLOAD,2023-02-22 02:13:26,15.08844138,8.2e-05,53.2155,84.2778,103.1626,256.9458,-8.3694e-05,-1.62e-05,0.0,0 STARLINK-3833,1 52578U 22051AU  23053.09266581 -.00001620  00000-0 -83694-4 0  9992,2 52578  53.2155  84.2778 0000820 103.1626 256.9458 15.08844138 43632,6917.868,95.437,540.3,539.165,0.0
52578.0,STARLINK-3833,PAYLOAD,2023-02-22 08:34:58,15.08848131,9.16e-05,53.2157,83.0885,104.0383,256.0711,-9.6201e-05,-1.819e-05,0.0,0 STARLINK-3833,1 52578U 22051AU  23053.35762282 -.00001819  00000-0 -96201-4 0  9998,2 52578  53.2157  83.0885 0000916 104.0383 256.0711 15.08848131 43603,6917.856,95.437,540.354,539.087,0.0
52578.0,STARLINK-3833,PAYLOAD,2023-02-23 05:14:59,15.08834169,9.48e-05,53.2154,79.2225,108.0099,252.0997,-1.5135e-05,-5.29e-06,0.0,0 STARLINK-3833,1 52578U 22051AU  23054.21874886 -.00000529  00000-0 -15135-4 0  9992,2 52578  53.2154  79.2225 0000948 108.0099 252.0997 15.08834169 43808,6917.898,95.438,540.419,539.107,0.0
52578.0,STARLINK-3833,PAYLOAD,2023-02-23 10:01:09,15.08837708,9.69e-05,53.2165,78.3327,103.4772,256.6328,4.4865e-05,4.26e-06,0.0,0 STARLINK-3833,1 52578U 22051AU  23054.41746558  .00000426  00000-0  44865-4 0  9994,2 52578  53.2165  78.3327 0000969 103.4772 256.6328 15.08837708 43768,6917.887,95.438,540.423,539.082,0.0
52578.0,STARLINK-3833,PAYLOAD,2023-02-23 17:58:04,15.08841287,9.89e-05,53.2165,76.8461,91.2068,268.9038,-5.5258e-05,-1.167e-05,0.0,0 STARLINK-3833,1 52578U 22051AU  23054.74866672 -.00001167  00000-0 -55258-4 0  9993,2 52578  53.2165  76.8461 0000989  91.2068 268.9038 15.08841287 43811,6917.876,95.437,540.426,539.057,0.0
52578.0,STARLINK-3833,PAYLOAD,2023-02-24 05:05:46,15.0883994,9.76e-05,53.2161,74.7643,85.6596,274.4507,7.8398e-05,9.6e-06,0.0,0 STARLINK-3833,1 52578U 22051AU  23055.21234489  .00000960  00000-0  78398-4 0  9999,2 52578  53.2161  74.7643 0000976  85.6596 274.4507 15.08839940 43956,6917.881,95.438,540.421,539.07,0.0
52578.0,STARLINK-3833,PAYLOAD,2023-02-24 06:41:09,15.08826062,9.17e-05,53.2162,74.4671,85.5278,274.5819,0.00029449,4.4e-05,0.0,0 STARLINK-3833,1 52578U 22051AU  23055.27858794  .00004400  00000-0  29449-3 0  9991,2 52578  53.2162  74.4671 0000917  85.5278 274.5819 15.08826062 43897,6917.923,95.438,540.422,539.154,0.0
52578.0,STARLINK-3833,PAYLOAD,2023-02-24 17:48:51,15.08838454,9.1e-05,53.2159,72.3851,87.8298,272.2798,5.852e-05,6.44e-06,0.0,0 STARLINK-3833,1 52578U 22051AU  23055.74226624  .00000644  00000-0  58520-4 0  9993,2 52578  53.2159  72.3851 0000910  87.8298 272.2798 15.08838454 43967,6917.885,95.438,540.38,539.121,0.0
52578.0,STARLINK-3833,PAYLOAD,2023-02-25 00:10:24,15.08833087,0.0001398,53.2177,71.1973,102.7361,257.3788,2.9527e-05,1.82e-06,0.0,0 STARLINK-3833,1 52578U 22051AU  23056.00723267  .00000182  00000-0  29527-4 0  9990,2 52578  53.2177  71.1973 0001398 102.7361 257.3788 15.08833087 44071,6917.902,95.438,540.734,538.799,0.0
52578.0,STARLINK-3833,PAYLOAD,2023-02-25 04:56:34,15.08828264,0.0001539,53.2184,70.304,115.9823,244.1328,-2.1249e-05,-6.26e-06,0.0,0 STARLINK-3833,1 52578U 22051AU  23056.20595836 -.00000626  00000-0 -21249-4 0  9999,2 52578  53.2184  70.3040 0001539 115.9823 244.1328 15.08828264 44032,6917.916,95.438,540.846,538.717,0.0
52578.0,STARLINK-3833,PAYLOAD,2023-02-25 17:39:39,15.08835222,0.0001093,53.2174,67.925,101.227,258.8845,4.0851e-06,-2.23e-06,0.0,0 STARLINK-3833,1 52578U 22051AU  23056.73587550 -.00000223  00000-0  40851-5 0  9994,2 52578  53.2174  67.9250 0001093 101.2270 258.8845 15.08835222 44112,6917.895,95.438,540.516,539.004,0.0
52578.0,STARLINK-3833,PAYLOAD,2023-02-26 03:11:58,15.08839763,0.0001148,53.2172,66.1405,104.7863,255.3256,3.785e-06,-2.28e-06,0.0,0 STARLINK-3833,1 52578U 22051AU  23057.13331363 -.00000228  00000-0  37850-5 0  9998,2 52578  53.2172  66.1405 0001148 104.7863 255.3256 15.08839763 44246,6917.881,95.438,540.54,538.952,0.0
52578.0,STARLINK-3833,PAYLOAD,2023-02-26 09:33:30,15.08848668,0.0001184,53.2175,64.951,102.8361,257.2764,7.2678e-05,8.69e-06,0.0,0 STARLINK-3833,1 52578U 22051AU  23057.39826631  .00000869  00000-0  72678-4 0  9999,2 52578  53.2175  64.9510 0001184 102.8361 257.2764 15.08848668 44287,6917.854,95.437,540.538,538.9,0.0
52578.0,STARLINK-3833,PAYLOAD,2023-02-26 17:30:26,15.08840336,0.000133,53.217,63.4631,89.2303,270.8841,5.8243e-05,6.39e-06,0.0,0 STARLINK-3833,1 52578U 22051AU  23057.72947179  .00000639  00000-0  58243-4 0  9994,2 52578  53.2170  63.4631 0001330  89.2303 270.8841 15.08840336 44334,6917.879,95.438,540.664,538.824,0.0
52578.0,STARLINK-3833,PAYLOAD,2023-02-27 09:24:17,15.08835745,9.31e-05,53.2162,60.4911,49.9676,310.1397,0.00014444,2.012e-05,0.0,0 STARLINK-3833,1 52578U 22051AU  23058.39187409  .00002012  00000-0  14444-3 0  9991,2 52578  53.2162  60.4911 0000931  49.9676 310.1397 15.08835745 44360,6917.893,95.438,540.402,539.114,0.0
52578.0,STARLINK-3833,PAYLOAD,2023-02-27 17:21:12,15.08852926,0.0001107,53.2161,59.0029,93.2167,266.8952,0.00016072,2.272e-05,0.0,0 STARLINK-3833,1 52578U 22051AU  23058.72306218  .00002272  00000-0  16072-3 0  9996,2 52578  53.2161  59.0029 0001107  93.2167 266.8952 15.08852926 44483,6917.841,95.437,540.472,538.94,0.0
